{
  "type": "FeatureCollection",
  "features": [
    {
      "type": "Feature",
      "properties": {
        "norad_id": 38091,
        "name": "BEIDOU-2 G5 (C05)",
        "group": "gnss",
        "lat": -1.8237747452213617,
        "lon": -73.84381202652199,
        "alt_km": 35733.25109203326,
        "timestamp": "2025-12-14T09:36:23.278847+00:00",
        "meta_object_name": "BEIDOU-2 G5 (C05)",
        "meta_object_id": "2012-008A",
        "meta_epoch": "2025-12-13T15:26:31.812000",
        "meta_mean_motion": 1.00276026,
        "meta_eccentricity": 0.00125671,
        "meta_inclination": 3.1118,
        "meta_ra_of_asc_node": 70.7084,
        "meta_arg_of_pericenter": 227.8926,
        "meta_mean_anomaly": 74.4079,
        "meta_ephemeris_type": 0,
        "meta_classification_type": "U",
        "meta_norad_cat_id": 38091,
        "meta_element_set_no": 999,
        "meta_rev_at_epoch": 5050,
        "meta_bstar": 0,
        "meta_mean_motion_dot": 7e-07,
        "meta_mean_motion_ddot": 0,
        "tle_line1": "1 38091U 12008A   25347.64342375  .00000070  00000+0  00000+0 0  9992",
        "tle_line2": "2 38091   3.1118  70.7084 0012567 227.8926  74.4079  1.00276026 50505"
      },
      "geometry": {
        "type": "Point",
        "coordinates": [
          -73.84381202652199,
          -1.8237747452213617
        ]
      }
    },
    {
      "type": "Feature",
      "properties": {
        "norad_id": 38250,
        "name": "BEIDOU-2 M3 (C11)",
        "group": "gnss",
        "lat": -39.55204183469541,
        "lon": -82.89137309891105,
        "alt_km": 21477.494697731312,
        "timestamp": "2025-12-14T09:36:23.278859+00:00",
        "meta_object_name": "BEIDOU-2 M3 (C11)",
        "meta_object_id": "2012-018A",
        "meta_epoch": "2025-12-12T20:44:25.859616",
        "meta_mean_motion": 1.86229754,
        "meta_eccentricity": 0.00243187,
        "meta_inclination": 55.9198,
        "meta_ra_of_asc_node": 311.1526,
        "meta_arg_of_pericenter": 274.2431,
        "meta_mean_anomaly": 85.469,
        "meta_ephemeris_type": 0,
        "meta_classification_type": "U",
        "meta_norad_cat_id": 38250,
        "meta_element_set_no": 999,
        "meta_rev_at_epoch": 9247,
        "meta_bstar": 0,
        "meta_mean_motion_dot": -9.2e-07,
        "meta_mean_motion_ddot": 0,
        "tle_line1": "1 38250U 12018A   25346.86418819 -.00000092  00000+0  00000+0 0  9995",
        "tle_line2": "2 38250  55.9198 311.1526 0024318 274.2431  85.4690  1.86229754 92475"
      },
      "geometry": {
        "type": "Point",
        "coordinates": [
          -82.89137309891105,
          -39.55204183469541
        ]
      }
    },
    {
      "type": "Feature",
      "properties": {
        "norad_id": 38251,
        "name": "BEIDOU-2 M4 (C12)",
        "group": "gnss",
        "lat": -3.7978296270659357,
        "lon": -52.272523912225765,
        "alt_km": 21519.88376796418,
        "timestamp": "2025-12-14T09:36:23.278870+00:00",
        "meta_object_name": "BEIDOU-2 M4 (C12)",
        "meta_object_id": "2012-018B",
        "meta_epoch": "2025-12-13T07:59:48.422112",
        "meta_mean_motion": 1.86229462,
        "meta_eccentricity": 0.00154528,
        "meta_inclination": 55.8208,
        "meta_ra_of_asc_node": 310.3658,
        "meta_arg_of_pericenter": 277.4494,
        "meta_mean_anomaly": 82.3644,
        "meta_ephemeris_type": 0,
        "meta_classification_type": "U",
        "meta_norad_cat_id": 38251,
        "meta_element_set_no": 999,
        "meta_rev_at_epoch": 9248,
        "meta_bstar": 0,
        "meta_mean_motion_dot": -9.5e-07,
        "meta_mean_motion_ddot": 0,
        "tle_line1": "1 38251U 12018B   25347.33319933 -.00000095  00000+0  00000+0 0  9999",
        "tle_line2": "2 38251  55.8208 310.3658 0015452 277.4494  82.3644  1.86229462 92489"
      },
      "geometry": {
        "type": "Point",
        "coordinates": [
          -52.272523912225765,
          -3.7978296270659357
        ]
      }
    },
    {
      "type": "Feature",
      "properties": {
        "norad_id": 38652,
        "name": "SES-5 (EGNOS/PRN 136)",
        "group": "gnss",
        "lat": -0.06944577705351818,
        "lon": -127.63563644741646,
        "alt_km": 35778.52264031872,
        "timestamp": "2025-12-14T09:36:23.278881+00:00",
        "meta_object_name": "SES-5 (EGNOS/PRN 136)",
        "meta_object_id": "2012-036A",
        "meta_epoch": "2025-12-12T13:30:18.514656",
        "meta_mean_motion": 1.00270732,
        "meta_eccentricity": 0.00020933,
        "meta_inclination": 0.0553,
        "meta_ra_of_asc_node": 306.3016,
        "meta_arg_of_pericenter": 315.2407,
        "meta_mean_anomaly": 27.5172,
        "meta_ephemeris_type": 0,
        "meta_classification_type": "U",
        "meta_norad_cat_id": 38652,
        "meta_element_set_no": 999,
        "meta_rev_at_epoch": 4259,
        "meta_bstar": 0,
        "meta_mean_motion_dot": 4.5e-07,
        "meta_mean_motion_ddot": 0,
        "tle_line1": "1 38652U 12036A   25346.56271429  .00000045  00000+0  00000+0 0  9999",
        "tle_line2": "2 38652   0.0553 306.3016 0002093 315.2407  27.5172  1.00270732 42590"
      },
      "geometry": {
        "type": "Point",
        "coordinates": [
          -127.63563644741646,
          -0.06944577705351818
        ]
      }
    },
    {
      "type": "Feature",
      "properties": {
        "norad_id": 38775,
        "name": "BEIDOU-2 M6 (C14)",
        "group": "gnss",
        "lat": -7.660344703206903,
        "lon": -105.85376933868304,
        "alt_km": 21557.720825994005,
        "timestamp": "2025-12-14T09:36:23.278893+00:00",
        "meta_object_name": "BEIDOU-2 M6 (C14)",
        "meta_object_id": "2012-050B",
        "meta_epoch": "2025-12-11T10:23:51.015840",
        "meta_mean_motion": 1.86230797,
        "meta_eccentricity": 0.00111593,
        "meta_inclination": 56.3773,
        "meta_ra_of_asc_node": 69.1107,
        "meta_arg_of_pericenter": 344.6089,
        "meta_mean_anomaly": 15.3783,
        "meta_ephemeris_type": 0,
        "meta_classification_type": "U",
        "meta_norad_cat_id": 38775,
        "meta_element_set_no": 999,
        "meta_rev_at_epoch": 8981,
        "meta_bstar": 0,
        "meta_mean_motion_dot": -6.3e-07,
        "meta_mean_motion_ddot": 0,
        "tle_line1": "1 38775U 12050B   25345.43322935 -.00000063  00000+0  00000+0 0  9996",
        "tle_line2": "2 38775  56.3773  69.1107 0011159 344.6089  15.3783  1.86230797 89814"
      },
      "geometry": {
        "type": "Point",
        "coordinates": [
          -105.85376933868304,
          -7.660344703206903
        ]
      }
    },
    {
      "type": "Feature",
      "properties": {
        "norad_id": 38779,
        "name": "GSAT-10 (GAGAN/PRN 128)",
        "group": "gnss",
        "lat": 0.05179091981998447,
        "lon": -49.584718866892395,
        "alt_km": 35796.20024145449,
        "timestamp": "2025-12-14T09:36:23.278907+00:00",
        "meta_object_name": "GSAT-10 (GAGAN/PRN 128)",
        "meta_object_id": "2012-051B",
        "meta_epoch": "2025-12-13T15:33:23.654880",
        "meta_mean_motion": 1.00273071,
        "meta_eccentricity": 0.00024828,
        "meta_inclination": 0.0873,
        "meta_ra_of_asc_node": 266.1903,
        "meta_arg_of_pericenter": 223.9722,
        "meta_mean_anomaly": 268.7694,
        "meta_ephemeris_type": 0,
        "meta_classification_type": "U",
        "meta_norad_cat_id": 38779,
        "meta_element_set_no": 999,
        "meta_rev_at_epoch": 4823,
        "meta_bstar": 0,
        "meta_mean_motion_dot": -1.5e-06,
        "meta_mean_motion_ddot": 0,
        "tle_line1": "1 38779U 12051B   25347.64819045 -.00000150  00000+0  00000+0 0  9996",
        "tle_line2": "2 38779   0.0873 266.1903 0002482 223.9722 268.7694  1.00273071 48234"
      },
      "geometry": {
        "type": "Point",
        "coordinates": [
          -49.584718866892395,
          0.05179091981998447
        ]
      }
    },
    {
      "type": "Feature",
      "properties": {
        "norad_id": 38833,
        "name": "GPS BIIF-3  (PRN 24)",
        "group": "gnss",
        "lat": 30.783620929313095,
        "lon": 177.2833021737499,
        "alt_km": 19751.91612378464,
        "timestamp": "2025-12-14T09:36:23.278919+00:00",
        "meta_object_name": "GPS BIIF-3  (PRN 24)",
        "meta_object_id": "2012-053A",
        "meta_epoch": "2025-12-12T20:25:41.380896",
        "meta_mean_motion": 2.00565025,
        "meta_eccentricity": 0.01758679,
        "meta_inclination": 53.5578,
        "meta_ra_of_asc_node": 151.234,
        "meta_arg_of_pericenter": 63.9869,
        "meta_mean_anomaly": 297.8174,
        "meta_ephemeris_type": 0,
        "meta_classification_type": "U",
        "meta_norad_cat_id": 38833,
        "meta_element_set_no": 999,
        "meta_rev_at_epoch": 9570,
        "meta_bstar": 0,
        "meta_mean_motion_dot": 9.1e-07,
        "meta_mean_motion_ddot": 0,
        "tle_line1": "1 38833U 12053A   25346.85117339  .00000091  00000+0  00000+0 0  9991",
        "tle_line2": "2 38833  53.5578 151.2340 0175867  63.9869 297.8174  2.00565025 95705"
      },
      "geometry": {
        "type": "Point",
        "coordinates": [
          177.2833021737499,
          30.783620929313095
        ]
      }
    }
  ]
}